1 28884U 05041A   18176.80462627  .00000073  00000-0  00000-0 0  9998
2 28884   0.0021  12.5099 0001651  86.2206 331.8136  1.00273110 46536
